GLOBALSTAR M079 [+]     
1 37188U 10054A   22298.23518848 -.00000079  00000+0  14033-3 0  9999
2 37188  52.0029 200.3021 0000788  58.5622 110.8906 12.62266148555149
GLOBALSTAR M074 [+]     
1 37189U 10054B   22297.75695525 -.00000074  00000+0  16747-3 0  9993
2 37189  52.0005 201.2312 0000831  74.7839 320.1430 12.62263775555013
GLOBALSTAR M076 [+]     
1 37190U 10054C   22297.78344503 -.00000086  00000+0  96476-4 0  9996
2 37190  52.0018 201.2337 0001048  55.4420 339.6937 12.62268144554739
GLOBALSTAR M077 [+]     
1 37191U 10054D   22297.69296708 -.00000071  00000+0  18084-3 0  9992
2 37191  52.0050 158.0886 0000967  83.0840 319.6607 12.62266232555094
GLOBALSTAR M075 [+]     
1 37192U 10054E   22297.26644414 -.00000099  00000+0  24827-4 0  9990
2 37192  51.9941 245.5995 0000624  43.9845 101.3925 12.62268897553899
GLOBALSTAR M073 [+]     
1 37193U 10054F   22298.06061662 -.00000064  00000+0  22415-3 0  9990
2 37193  52.0035 156.2670 0000962  82.2786  73.0844 12.62268510555876
GLOBALSTAR M083 [+]     
1 37739U 11033A   22297.67109601 -.00000087  00000+0  93161-4 0  9998
2 37739  51.9837 107.5000 0000619 106.7274  19.2316 12.62265168524798
GLOBALSTAR M088 [+]     
1 37740U 11033B   22298.17522896 -.00000090  00000+0  78428-4 0  9994
2 37740  51.9759  12.2715 0000181  94.6827 282.6229 12.62266362520692
GLOBALSTAR M091 [+]     
1 37741U 11033C   22298.19371372 -.00000090  00000+0  78156-4 0  9996
2 37741  52.0011 334.0439 0000097  42.7952 357.7076 12.62268128521454
GLOBALSTAR M085 [+]     
1 37742U 11033D   22298.44540076 -.00000109  00000+0 -26617-4 0  9991
2 37742  51.9861 285.1701 0000390  42.5214 122.8448 12.62268350522226
GLOBALSTAR M081 [+]     
1 37743U 11033E   22297.44241269 -.00000101  00000+0  13667-4 0  9995
2 37743  51.9955 290.4164 0000505  25.0144 139.6540 12.62264272521754
GLOBALSTAR M089 [+]     
1 37744U 11033F   22297.84751226 -.00000108  00000+0 -25786-4 0  9992
2 37744  51.9922 243.5909 0000933  64.8106 321.9006 12.62269115522653
GLOBALSTAR M084 [+]     
1 38040U 11080A   22297.71461247 -.00000092  00000+0  66393-4 0  9991
2 38040  51.9986 110.7714 0001066  93.6298 348.6285 12.62269553500615
GLOBALSTAR M080 [+]     
1 38041U 11080B   22297.85933278 -.00000099  00000+0  26562-4 0  9996
2 38041  52.0040 111.5990 0001143  89.1129  50.4380 12.62269824500753
GLOBALSTAR M082 [+]     
1 38042U 11080C   22298.40355149 -.00000126  00000+0 -12566-3 0  9994
2 38042  52.0080  65.2832 0000639 149.9911 244.9616 12.62271889501703
GLOBALSTAR M092 [+]     
1 38043U 11080D   22298.32832895 -.00000066  00000+0  21103-3 0  9993
2 38043  52.0064 155.8424 0001219  92.7780  78.6382 12.62264412500180
GLOBALSTAR M090 [+]     
1 38044U 11080E   22297.82443609 -.00000122  00000+0 -10431-3 0  9995
2 38044  51.9893  62.1015 0000491 111.5123  50.1425 12.62266583501575
GLOBALSTAR M086 [+]     
1 38045U 11080F   22297.76837373 -.00000123  00000+0 -10668-3 0  9997
2 38045  51.9904  62.7468 0000940  22.1332 125.3903 12.62266136501519
GLOBALSTAR M097 [+]     
1 39072U 13005A   22297.52487813 -.00000075  00000+0  15965-3 0  9991
2 39072  52.0062 337.0560 0000143   1.4012 358.6855 12.62275504448738
GLOBALSTAR M093 [+]     
1 39073U 13005B   22297.57761868 -.00000083  00000+0  11657-3 0  9995
2 39073  51.9825 331.7469 0000218 336.1534  23.9322 12.62265482448693
GLOBALSTAR M094 [+]     
1 39074U 13005C   22297.26092904 -.00000112  00000+0 -44196-4 0  9999
2 39074  51.9949 246.1260 0000639  46.4305 313.6614 12.62269708450267
GLOBALSTAR M096 [+]     
1 39075U 13005D   22298.38280982 -.00000102  00000+0  96458-5 0  9996
2 39075  52.0071 290.4714 0000434  21.3376 338.7509 12.62270711449675
GLOBALSTAR M078 [+]     
1 39076U 13005E   22298.19812663 -.00000162  00000+0 -32486-3 0  9999
2 39076  51.9903  16.8563 0000882 175.4900 184.5974 12.62261162448134
GLOBALSTAR M095 [+]     
1 39077U 13005F   22298.46154569 -.00000100  00000+0  21487-4 0  9995
2 39077  51.9827  13.7267 0000440 197.1437 162.9414 12.62263122448174
GLOBALSTAR FM15 [+]     
1 52888U 22064A   22298.32772205 -.00000128  00000+0  00000+0 0  9996
2 52888  51.9782 143.4728 0008840 280.3716  79.6189 13.37543624 17119
